OBJECT_NAME,OBJECT_ID,EPOCH,MEAN_MOTION,ECCENTRICITY,INCLINATION,RA_OF_ASC_NODE,ARG_OF_PERICENTER,MEAN_ANOMALY,EPHEMERIS_TYPE,CLASSIFICATION_TYPE,NORAD_CAT_ID,ELEMENT_SET_NO,REV_AT_EPOCH,BSTAR,MEAN_MOTION_DOT,MEAN_MOTION_DDOT
HODOYOSHI-4,2014-033B,2026-07-14T04:45:54.675936,14.88187599,.0022608,97.5452,18.7188,212.9593,147.0216,0,U,40011,999,65282,.11682E-3,.1029E-4,0
DEIMOS-2,2014-033D,2026-07-14T04:17:27.832704,14.93792529,.0000867,97.5798,68.7157,99.2695,260.8623,0,U,40013,999,64175,.59898E-4,.581E-5,0
HODOYOSHI-3,2014-033F,2026-07-13T23:53:18.318624,14.85435939,.0031284,97.6443,356.9614,266.0457,93.7182,0,U,40015,999,65160,.59592E-4,.465E-5,0
SPOT 7,2014-034A,2026-07-14T03:59:06.123840,14.60980670,.0001592,98.0623,256.9608,96.2458,263.8924,0,U,40053,999,64107,.66189E-4,.279E-5,0
SKYSAT-B,2014-037D,2026-07-13T21:18:06.166368,14.88090396,.0005461,98.3853,155.3779,176.6289,183.4964,0,U,40072,999,64993,.74958E-4,.628E-5,0
WORLDVIEW-3 (WV-3),2014-048A,2026-07-14T04:28:32.387808,14.85063297,.0001222,97.8557,269.6458,157.8708,202.2560,0,U,40115,999,64591,.55953E-4,.425E-5,0
GAOFEN-2,2014-049A,2026-07-14T04:52:32.800224,14.80927105,.0008195,98.0104,259.3827,137.6135,222.5711,0,U,40118,999,64323,.75542E-4,.531E-5,0
YAOGAN-21,2014-053A,2026-07-14T04:02:50.426016,15.26753043,.0007872,97.1463,234.2499,11.6363,348.5057,0,U,40143,999,65907,.18339E-3,.4757E-4,0
YAOGAN-22,2014-063A,2026-07-14T00:45:39.282624,13.15531586,.0006848,100.7760,346.7546,127.5672,232.6062,0,U,40275,999,56334,-.6042E-4,-.7E-6,0
ASNARO,2014-070A,2026-07-14T05:20:32.718624,15.19822854,.0006702,97.3452,270.6100,91.4737,268.7265,0,U,40298,999,64811,.29284E-3,.6212E-4,0
YAOGAN-24,2014-072A,2026-07-14T04:42:24.346368,14.76116037,.0014551,98.1517,332.7637,172.7635,187.3787,0,U,40310,999,62770,-.94807E-5,-.119E-5,0
CBERS 4,2014-079A,2026-07-14T05:18:05.942304,14.35515376,.0000815,98.3525,251.2023,54.0288,306.0973,0,U,40336,999,60783,-.16756E-4,-.9E-6,0
YAOGAN-26,2014-088A,2026-07-14T03:44:20.366592,15.48417270,.0002042,97.0639,194.7535,348.0810,12.0393,0,U,40362,999,64187,.26777E-3,.14116E-3,0
SMAP,2015-003A,2026-07-14T03:45:40.002336,14.63388668,.0001591,98.1283,201.8700,95.4307,264.7077,0,U,40376,999,61156,.48633E-4,.204E-5,0
KOMPSAT-3A,2015-014A,2026-07-14T03:30:22.690944,15.55382940,.0056358,97.6884,188.5080,79.3473,281.4120,0,U,40536,999,62600,.31465E-3,.22889E-3,0
SENTINEL-2A,2015-028A,2026-07-14T04:59:05.451936,14.30813513,.0001265,98.5685,269.6745,96.1666,263.9661,0,U,40697,999,57759,-.48805E-4,-.172E-5,0
GAOFEN-8,2015-030A,2026-07-14T04:47:41.920800,15.46913961,.0009994,97.6888,30.2093,98.9211,261.3170,0,U,40701,999,61562,.16632E-3,.8287E-4,0
CARBONITE 1 (CBNT-1),2015-032D,2026-07-14T05:27:35.670816,14.83663529,.0013745,97.6513,12.1644,200.4638,159.6028,0,U,40718,999,59335,.32751E-4,.22E-5,0
YAOGAN-27,2015-040A,2026-07-14T04:01:53.663808,13.16072932,.0008529,100.1160,180.3812,147.2257,212.9387,0,U,40878,999,52121,.13756E-2,.48E-5,0
GAOFEN-9 01,2015-047A,2026-07-14T04:30:54.484704,14.82934014,.0028522,97.6271,229.6549,53.6569,306.7272,0,U,40894,999,58419,.67989E-4,.504E-5,0
YAOGAN-28,2015-064A,2026-07-14T04:18:47.705184,15.27752381,.0012071,97.3106,332.9017,96.2265,264.0350,0,U,41026,999,59480,.16371E-3,.4373E-4,0
YAOGAN-29,2015-069A,2026-07-14T05:34:32.021184,14.83105383,.0000782,98.0022,223.9064,13.5856,346.5379,0,U,41038,999,57463,.35332E-4,.234E-5,0
KENT RIDGE 1,2015-077B,2026-07-13T21:07:33.478176,15.23280102,.0008288,14.9803,67.4430,256.4533,103.4866,0,U,41167,999,58517,.72272E-4,.2527E-4,0
GAOFEN-4,2015-083A,2026-07-13T16:26:26.113344,1.00274923,.000394,0.4223,83.7871,124.9375,75.1281,0,U,41194,999,3879,0,-.34E-5,0
JASON-3,2016-002A,2026-07-14T04:29:36.304800,12.87628602,.0008191,66.0416,69.0715,271.0379,88.9701,0,U,41240,999,49072,.16816E-3,-.2E-6,0
SENTINEL-3A,2016-011A,2026-07-14T03:30:51.590016,14.26739598,.0001367,98.6238,262.1412,90.4375,269.6962,0,U,41335,999,54190,.37261E-4,.47E-6,0
ZIYUAN 3-02 (ZY 3-02),2016-033A,2026-07-14T05:21:13.038048,15.21429113,.0013961,97.3831,270.4773,188.2758,171.8249,0,U,41556,999,56209,.144E-3,.3171E-4,0
CARTOSAT-2C,2016-040A,2026-07-14T04:43:13.614240,15.19259257,.0009592,97.4473,254.8007,48.5812,311.6245,0,U,41599,999,55781,.94813E-4,.1932E-4,0
SKYSAT-C1,2016-040C,2026-07-14T01:08:37.633056,15.36736009,.0000384,96.9552,225.3167,331.9804,28.1421,0,U,41601,999,56199,.15569E-3,.5512E-4,0
LAPAN-A3,2016-040E,2026-07-14T05:04:06.403872,15.33274204,.0008266,97.1504,190.4735,280.5553,79.4759,0,U,41603,999,55895,.62632E-4,.194E-4,0
GAOFEN-3,2016-049A,2026-07-14T05:03:29.097216,14.42218953,.0001784,98.4012,202.5889,85.8823,274.2571,0,U,41727,999,52254,.40742E-4,.91E-6,0
