HODOYOSHI-4             
1 40011U 14033B   26195.19854949  .00001029  00000+0  11682-3 0  9991
2 40011  97.5452  18.7188 0022608 212.9593 147.0216 14.88187599652826
DEIMOS-2                
1 40013U 14033D   26195.17879436  .00000581  00000+0  59898-4 0  9993
2 40013  97.5798  68.7157 0000867  99.2695 260.8623 14.93792529641751
HODOYOSHI-3             
1 40015U 14033F   26194.99535091  .00000465  00000+0  59592-4 0  9992
2 40015  97.6443 356.9614 0031284 266.0457  93.7182 14.85435939651606
SPOT 7                  
1 40053U 14034A   26195.16604310  .00000279  00000+0  66189-4 0  9999
2 40053  98.0623 256.9608 0001592  96.2458 263.8924 14.60980670641072
SKYSAT-B                
1 40072U 14037D   26194.88757137  .00000628  00000+0  74958-4 0  9998
2 40072  98.3853 155.3779 0005461 176.6289 183.4964 14.88090396649937
WORLDVIEW-3 (WV-3)      
1 40115U 14048A   26195.18648597  .00000425  00000+0  55953-4 0  9990
2 40115  97.8557 269.6458 0001222 157.8708 202.2560 14.85063297645914
GAOFEN-2                
1 40118U 14049A   26195.20315741  .00000531  00000+0  75542-4 0  9993
2 40118  98.0104 259.3827 0008195 137.6135 222.5711 14.80927105643238
YAOGAN-21               
1 40143U 14053A   26195.16863919  .00004757  00000+0  18339-3 0  9990
2 40143  97.1463 234.2499 0007872  11.6363 348.5057 15.26753043659076
YAOGAN-22               
1 40275U 14063A   26195.03170466 -.00000070  00000+0 -60420-4 0  9996
2 40275 100.7760 346.7546 0006848 127.5672 232.6062 13.15531586563342
ASNARO                  
1 40298U 14070A   26195.22260091  .00006212  00000+0  29284-3 0  9998
2 40298  97.3452 270.6100 0006702  91.4737 268.7265 15.19822854648118
YAOGAN-24               
1 40310U 14072A   26195.19611512 -.00000119  00000+0 -94807-5 0  9996
2 40310  98.1517 332.7637 0014551 172.7635 187.3787 14.76116037627708
CBERS 4                 
1 40336U 14079A   26195.22090211 -.00000090  00000+0 -16756-4 0  9996
2 40336  98.3525 251.2023 0000815  54.0288 306.0973 14.35515376607838
YAOGAN-26               
1 40362U 14088A   26195.15579128  .00014116  00000+0  26777-3 0  9991
2 40362  97.0639 194.7535 0002042 348.0810  12.0393 15.48417270641870
SMAP                    
1 40376U 15003A   26195.15671299  .00000204  00000+0  48633-4 0  9995
2 40376  98.1283 201.8700 0001591  95.4307 264.7077 14.63388668611560
KOMPSAT-3A              
1 40536U 15014A   26195.14609596  .00022889  00000+0  31465-3 0  9992
2 40536  97.6884 188.5080 0056358  79.3473 281.4120 15.55382940626006
SENTINEL-2A             
1 40697U 15028A   26195.20770199 -.00000172  00000+0 -48805-4 0  9990
2 40697  98.5685 269.6745 0001265  96.1666 263.9661 14.30813513577591
GAOFEN-8                
1 40701U 15030A   26195.19979075  .00008287  00000+0  16632-3 0  9996
2 40701  97.6888  30.2093 0009994  98.9211 261.3170 15.46913961615623
CARBONITE 1 (CBNT-1)    
1 40718U 15032D   26195.22749619  .00000220  00000+0  32751-4 0  9999
2 40718  97.6513  12.1644 0013745 200.4638 159.6028 14.83663529593357
YAOGAN-27               
1 40878U 15040A   26195.16798222  .00000480  00000+0  13756-2 0  9992
2 40878 100.1160 180.3812 0008529 147.2257 212.9387 13.16072932521210
GAOFEN-9 01             
1 40894U 15047A   26195.18813061  .00000504  00000+0  67989-4 0  9994
2 40894  97.6271 229.6549 0028522  53.6569 306.7272 14.82934014584199
YAOGAN-28               
1 41026U 15064A   26195.17971881  .00004373  00000+0  16371-3 0  9991
2 41026  97.3106 332.9017 0012071  96.2265 264.0350 15.27752381594804
YAOGAN-29               
1 41038U 15069A   26195.23231506  .00000234  00000+0  35332-4 0  9990
2 41038  98.0022 223.9064 0000782  13.5856 346.5379 14.83105383574638
KENT RIDGE 1            
1 41167U 15077B   26194.88024859  .00002527  00000+0  72272-4 0  9994
2 41167  14.9803  67.4430 0008288 256.4533 103.4866 15.23280102585172
GAOFEN-4                
1 41194U 15083A   26194.68502446 -.00000340  00000+0  00000+0 0  9999
2 41194   0.4223  83.7871 0003940 124.9375  75.1281  1.00274923 38792
JASON-3                 
1 41240U 16002A   26195.18722575 -.00000020  00000+0  16816-3 0  9997
2 41240  66.0416  69.0715 0008191 271.0379  88.9701 12.87628602490729
SENTINEL-3A             
1 41335U 16011A   26195.14643044  .00000047  00000+0  37261-4 0  9997
2 41335  98.6238 262.1412 0001367  90.4375 269.6962 14.26739598541900
ZIYUAN 3-02 (ZY 3-02)   
1 41556U 16033A   26195.22306757  .00003171  00000+0  14400-3 0  9992
2 41556  97.3831 270.4773 0013961 188.2758 171.8249 15.21429113562096
CARTOSAT-2C             
1 41599U 16040A   26195.19668535  .00001932  00000+0  94813-4 0  9998
2 41599  97.4473 254.8007 0009592  48.5812 311.6245 15.19259257557817
SKYSAT-C1               
1 41601U 16040C   26195.04765779  .00005512  00000+0  15569-3 0  9992
2 41601  96.9552 225.3167 0000384 331.9804  28.1421 15.36736009561997
LAPAN-A3                
1 41603U 16040E   26195.21118523  .00001940  00000+0  62632-4 0  9997
2 41603  97.1504 190.4735 0008266 280.5553  79.4759 15.33274204558955
GAOFEN-3                
1 41727U 16049A   26195.21075344  .00000091  00000+0  40742-4 0  9990
2 41727  98.4012 202.5889 0001784  85.8823 274.2571 14.42218953522540
